2025-180A               
1 65259U 25180A   26060.20974942  .00023159  00000+0  10883-2 0  9995
2 65259  97.5026 189.2879 0011911 335.2896  24.7766 15.19541211 29374
AC1-002                 
1 66745U 25276CH  26068.70421404  .00003369  00000+0  16927-3 0  9992
2 66745  97.4267 143.9072 0002089  20.2082 339.9235 15.17945166 15313
